SOYUZ-MS 28             
1 66664U 25275A   25355.44057291  .00008972  00000+0  16671-3 0  9990
2 66664  51.6323  99.3910 0003157 280.7962  79.2671 15.49701473  3793
1998-067XS              
1 66906U 98067XS  25355.49314184  .00024678  00000+0  42362-3 0  9997
2 66906  51.6316  98.9926 0002953 243.0961 116.9727 15.51010585  2970
1998-067XT              
1 66907U 98067XT  25355.48372652  .00054612  00000+0  87766-3 0  9999
2 66907  51.6316  98.9297 0003879 279.7244  80.3308 15.52463027  2973
1998-067XU              
1 66908U 98067XU  25355.03229124  .00049977  00000+0  80289-3 0  9997
2 66908  51.6311 101.1653 0003904 276.2494  83.8051 15.52510982  2909
SILVERSAT               
1 66909U 98067XV  25355.03120921  .00053716  00000+0  85685-3 0  9994
2 66909  51.6312 101.1583 0003815 279.3746  80.6813 15.52677939  2905
1998-067XW              
1 66910U 98067XW  25355.02942549  .00046622  00000+0  74556-3 0  9996
2 66910  51.6309 101.1459 0004176 252.7985 107.2548 15.52668327  2908
1998-067XX              
1 66911U 98067XX  25355.28420612  .00060532  00000+0  94843-3 0  9994
2 66911  51.6308  99.8474 0003853 259.7262 100.3293 15.53123462  2935
1998-067XY              
1 66912U 98067XY  25355.48709823  .00043530  00000+0  71547-3 0  9996
2 66912  51.6317  98.9521 0004003 271.7448  88.3083 15.51934859  2960
